CCSDS_OMM_VERS = 2.0
CREATION_DATE  = 
ORIGINATOR     = 

OBJECT_NAME    = ALOS (DAICHI)
OBJECT_ID      = 2006-002A
CENTER_NAME    = EARTH
REF_FRAME      = TEME
TIME_SYSTEM    = UTC
MEAN_ELEMENT_THEORY = SGP/SGP4

EPOCH          = 2026-01-05T14:16:48.612576
MEAN_MOTION    = 14.69578072
ECCENTRICITY   = .0002014
INCLINATION    = 98.1128
RA_OF_ASC_NODE = 321.9191
ARG_OF_PERICENTER = 101.4176
MEAN_ANOMALY   = 258.7256

EPHEMERIS_TYPE = 0
CLASSIFICATION_TYPE = U
NORAD_CAT_ID   = 28931
ELEMENT_SET_NO = 999
REV_AT_EPOCH   = 6421
BSTAR          = .36611479E-3
MEAN_MOTION_DOT = .2125E-4
MEAN_MOTION_DDOT = 0

CCSDS_OMM_VERS = 2.0
CREATION_DATE  = 
ORIGINATOR     = 

OBJECT_NAME    = H-2A R/B
OBJECT_ID      = 2006-002B
CENTER_NAME    = EARTH
REF_FRAME      = TEME
TIME_SYSTEM    = UTC
MEAN_ELEMENT_THEORY = SGP/SGP4

EPOCH          = 2026-01-08T08:08:17.167776
MEAN_MOTION    = 15.15191279
ECCENTRICITY   = .0054622
INCLINATION    = 98.2331
RA_OF_ASC_NODE = 150.2742
ARG_OF_PERICENTER = 86.7898
MEAN_ANOMALY   = 273.9579

EPHEMERIS_TYPE = 0
CLASSIFICATION_TYPE = U
NORAD_CAT_ID   = 28932
ELEMENT_SET_NO = 999
REV_AT_EPOCH   = 8529
BSTAR          = .55637E-3
MEAN_MOTION_DOT = .10772E-3
MEAN_MOTION_DDOT = 0

CCSDS_OMM_VERS = 2.0
CREATION_DATE  = 
ORIGINATOR     = 

OBJECT_NAME    = RESURS-DK 1
OBJECT_ID      = 2006-021A
CENTER_NAME    = EARTH
REF_FRAME      = TEME
TIME_SYSTEM    = UTC
MEAN_ELEMENT_THEORY = SGP/SGP4

EPOCH          = 2026-01-08T03:45:12.030336
MEAN_MOTION    = 15.12343098
ECCENTRICITY   = .00065665
INCLINATION    = 69.9340
RA_OF_ASC_NODE = 33.5583
ARG_OF_PERICENTER = 237.1653
MEAN_ANOMALY   = 122.8881

EPHEMERIS_TYPE = 0
CLASSIFICATION_TYPE = U
NORAD_CAT_ID   = 29228
ELEMENT_SET_NO = 999
REV_AT_EPOCH   = 7837
BSTAR          = .15066656E-3
MEAN_MOTION_DOT = .2511E-4
MEAN_MOTION_DDOT = 0

CCSDS_OMM_VERS = 2.0
CREATION_DATE  = 
ORIGINATOR     = 

OBJECT_NAME    = CZ-4B R/B
OBJECT_ID      = 2006-046C
CENTER_NAME    = EARTH
REF_FRAME      = TEME
TIME_SYSTEM    = UTC
MEAN_ELEMENT_THEORY = SGP/SGP4

EPOCH          = 2026-01-08T02:30:59.880672
MEAN_MOTION    = 15.16190716
ECCENTRICITY   = .00352161
INCLINATION    = 97.5697
RA_OF_ASC_NODE = 53.1716
ARG_OF_PERICENTER = 116.3514
MEAN_ANOMALY   = 244.1342

EPHEMERIS_TYPE = 0
CLASSIFICATION_TYPE = U
NORAD_CAT_ID   = 29507
ELEMENT_SET_NO = 999
REV_AT_EPOCH   = 5086
BSTAR          = .20577558E-3
MEAN_MOTION_DOT = .3966E-4
MEAN_MOTION_DDOT = 0

CCSDS_OMM_VERS = 2.0
CREATION_DATE  = 
ORIGINATOR     = 

OBJECT_NAME    = CZ-2C R/B
OBJECT_ID      = 2007-010B
CENTER_NAME    = EARTH
REF_FRAME      = TEME
TIME_SYSTEM    = UTC
MEAN_ELEMENT_THEORY = SGP/SGP4

EPOCH          = 2026-01-08T08:23:31.068960
MEAN_MOTION    = 14.20222774
ECCENTRICITY   = .0060061
INCLINATION    = 98.3971
RA_OF_ASC_NODE = 124.6616
ARG_OF_PERICENTER = 109.4168
MEAN_ANOMALY   = 251.3513

EPHEMERIS_TYPE = 0
CLASSIFICATION_TYPE = U
NORAD_CAT_ID   = 31114
ELEMENT_SET_NO = 999
REV_AT_EPOCH   = 97115
BSTAR          = .1015E-3
MEAN_MOTION_DOT = .18E-5
MEAN_MOTION_DDOT = 0

CCSDS_OMM_VERS = 2.0
CREATION_DATE  = 
ORIGINATOR     = 

OBJECT_NAME    = COSMO-SKYMED 1
OBJECT_ID      = 2007-023A
CENTER_NAME    = EARTH
REF_FRAME      = TEME
TIME_SYSTEM    = UTC
MEAN_ELEMENT_THEORY = SGP/SGP4

EPOCH          = 2026-01-08T11:28:18.073344
MEAN_MOTION    = 14.96013821
ECCENTRICITY   = .0001618
INCLINATION    = 97.8848
RA_OF_ASC_NODE = 199.0568
ARG_OF_PERICENTER = 83.1773
MEAN_ANOMALY   = 276.9632

EPHEMERIS_TYPE = 0
CLASSIFICATION_TYPE = U
NORAD_CAT_ID   = 31598
ELEMENT_SET_NO = 999
REV_AT_EPOCH   = 590
BSTAR          = .43687E-3
MEAN_MOTION_DOT = .4843E-4
MEAN_MOTION_DDOT = 0

CCSDS_OMM_VERS = 2.0
CREATION_DATE  = 
ORIGINATOR     = 

OBJECT_NAME    = COSMOS 2428
OBJECT_ID      = 2007-029A
CENTER_NAME    = EARTH
REF_FRAME      = TEME
TIME_SYSTEM    = UTC
MEAN_ELEMENT_THEORY = SGP/SGP4

EPOCH          = 2026-01-08T06:53:54.952512
MEAN_MOTION    = 14.12904940
ECCENTRICITY   = .00052209
INCLINATION    = 70.9388
RA_OF_ASC_NODE = 330.1401
ARG_OF_PERICENTER = 347.2932
MEAN_ANOMALY   = 12.8056

EPHEMERIS_TYPE = 0
CLASSIFICATION_TYPE = U
NORAD_CAT_ID   = 31792
ELEMENT_SET_NO = 999
REV_AT_EPOCH   = 95556
BSTAR          = .20908628E-3
MEAN_MOTION_DOT = .341E-5
MEAN_MOTION_DDOT = 0

CCSDS_OMM_VERS = 2.0
CREATION_DATE  = 
ORIGINATOR     = 

OBJECT_NAME    = SL-16 R/B
OBJECT_ID      = 2007-029B
CENTER_NAME    = EARTH
REF_FRAME      = TEME
TIME_SYSTEM    = UTC
MEAN_ELEMENT_THEORY = SGP/SGP4

EPOCH          = 2026-01-08T06:22:59.375136
MEAN_MOTION    = 14.14825834
ECCENTRICITY   = .0002186
INCLINATION    = 70.9774
RA_OF_ASC_NODE = 299.3978
ARG_OF_PERICENTER = 273.1238
MEAN_ANOMALY   = 199.7832

EPHEMERIS_TYPE = 0
CLASSIFICATION_TYPE = U
NORAD_CAT_ID   = 31793
ELEMENT_SET_NO = 999
REV_AT_EPOCH   = 95682
BSTAR          = -.4990885E-5
MEAN_MOTION_DOT = -.57E-6
MEAN_MOTION_DDOT = 0

CCSDS_OMM_VERS = 2.0
CREATION_DATE  = 
ORIGINATOR     = 

OBJECT_NAME    = KORONAS-FOTON
OBJECT_ID      = 2009-003A
CENTER_NAME    = EARTH
REF_FRAME      = TEME
TIME_SYSTEM    = UTC
MEAN_ELEMENT_THEORY = SGP/SGP4

EPOCH          = 2026-01-08T10:25:44.043456
MEAN_MOTION    = 15.41790373
ECCENTRICITY   = .0012033
INCLINATION    = 82.4323
RA_OF_ASC_NODE = 338.4322
ARG_OF_PERICENTER = 25.2808
MEAN_ANOMALY   = 334.9025

EPHEMERIS_TYPE = 0
CLASSIFICATION_TYPE = U
NORAD_CAT_ID   = 33504
ELEMENT_SET_NO = 999
REV_AT_EPOCH   = 93645
BSTAR          = .27361E-3
MEAN_MOTION_DOT = .11647E-3
MEAN_MOTION_DDOT = 0

CCSDS_OMM_VERS = 2.0
CREATION_DATE  = 
ORIGINATOR     = 

OBJECT_NAME    = CZ-2C R/B
OBJECT_ID      = 2011-030B
CENTER_NAME    = EARTH
REF_FRAME      = TEME
TIME_SYSTEM    = UTC
MEAN_ELEMENT_THEORY = SGP/SGP4

EPOCH          = 2026-01-08T11:53:14.553312
MEAN_MOTION    = 14.80996772
ECCENTRICITY   = .0052526
INCLINATION    = 97.8449
RA_OF_ASC_NODE = 327.0165
ARG_OF_PERICENTER = 184.6830
MEAN_ANOMALY   = 292.1724

EPHEMERIS_TYPE = 0
CLASSIFICATION_TYPE = U
NORAD_CAT_ID   = 37731
ELEMENT_SET_NO = 999
REV_AT_EPOCH   = 78118
BSTAR          = .19419E-3
MEAN_MOTION_DOT = .1485E-4
MEAN_MOTION_DDOT = 0

CCSDS_OMM_VERS = 2.0
CREATION_DATE  = 
ORIGINATOR     = 

OBJECT_NAME    = H-2A R/B
OBJECT_ID      = 2012-025E
CENTER_NAME    = EARTH
REF_FRAME      = TEME
TIME_SYSTEM    = UTC
MEAN_ELEMENT_THEORY = SGP/SGP4

EPOCH          = 2026-01-08T11:41:30.331968
MEAN_MOTION    = 14.94643300
ECCENTRICITY   = .0045633
INCLINATION    = 98.4635
RA_OF_ASC_NODE = 330.7880
ARG_OF_PERICENTER = 148.1897
MEAN_ANOMALY   = 212.2092

EPHEMERIS_TYPE = 0
CLASSIFICATION_TYPE = U
NORAD_CAT_ID   = 38341
ELEMENT_SET_NO = 999
REV_AT_EPOCH   = 73922
BSTAR          = .29342E-3
MEAN_MOTION_DOT = .3176E-4
MEAN_MOTION_DDOT = 0

CCSDS_OMM_VERS = 2.0
CREATION_DATE  = 
ORIGINATOR     = 

OBJECT_NAME    = SHIJIAN-16 (SJ-16)
OBJECT_ID      = 2013-057A
CENTER_NAME    = EARTH
REF_FRAME      = TEME
TIME_SYSTEM    = UTC
MEAN_ELEMENT_THEORY = SGP/SGP4

EPOCH          = 2026-01-08T13:22:47.244000
MEAN_MOTION    = 14.92118487
ECCENTRICITY   = .0017913
INCLINATION    = 74.9739
RA_OF_ASC_NODE = 298.9082
ARG_OF_PERICENTER = 257.9611
MEAN_ANOMALY   = 101.9569

EPHEMERIS_TYPE = 0
CLASSIFICATION_TYPE = U
NORAD_CAT_ID   = 39358
ELEMENT_SET_NO = 999
REV_AT_EPOCH   = 66253
BSTAR          = .38793E-3
MEAN_MOTION_DOT = .3929E-4
MEAN_MOTION_DDOT = 0

