ALOS (DAICHI)           
1 28931U 06002A   26005.59500709  .00002125  00000+0  36611-3 0  9998
2 28931  98.1128 321.9191 0002014 101.4176 258.7256 14.69578072 64214
H-2A R/B                
1 28932U 06002B   26008.33908759  .00010772  00000+0  55637-3 0  9997
2 28932  98.2331 150.2742 0054622  86.7898 273.9579 15.15191279 85295
RESURS-DK 1             
1 29228U 06021A   26008.15638924  .00002511  00000+0  15067-3 0  9996
2 29228  69.9340  33.5583 0006566 237.1653 122.8881 15.12343098 78374
CZ-4B R/B               
1 29507U 06046C   26008.10485973  .00003966  00000+0  20578-3 0  9990
2 29507  97.5697  53.1716 0035216 116.3514 244.1342 15.16190716 50865
CZ-2C R/B               
1 31114U 07010B   26008.34966515  .00000180  00000+0  10150-3 0  9991
2 31114  98.3971 124.6616 0060061 109.4168 251.3513 14.20222774971151
COSMO-SKYMED 1          
1 31598U 07023A   26008.47798696  .00004843  00000+0  43687-3 0  9999
2 31598  97.8848 199.0568 0001618  83.1773 276.9632 14.96013821  5909
COSMOS 2428             
1 31792U 07029A   26008.28744158  .00000341  00000+0  20909-3 0  9995
2 31792  70.9388 330.1401 0005220 347.2932  12.8056 14.12904940955566
SL-16 R/B               
1 31793U 07029B   26008.26596499 -.00000057  00000+0 -49909-5 0  9996
2 31793  70.9774 299.3978 0002186 273.1238 199.7832 14.14825834956828
KORONAS-FOTON           
1 33504U 09003A   26008.43453754  .00011647  00000+0  27361-3 0  9998
2 33504  82.4323 338.4322 0012033  25.2808 334.9025 15.41790373936451
CZ-2C R/B               
1 37731U 11030B   26008.49530733  .00001485  00000+0  19419-3 0  9990
2 37731  97.8449 327.0165 0052526 184.6830 292.1724 14.80996772781183
H-2A R/B                
1 38341U 12025E   26008.48715662  .00003176  00000+0  29342-3 0  9993
2 38341  98.4635 330.7880 0045633 148.1897 212.2092 14.94643300739229
SHIJIAN-16 (SJ-16)      
1 39358U 13057A   26008.55749125  .00003929  00000+0  38793-3 0  9993
2 39358  74.9739 298.9082 0017913 257.9611 101.9569 14.92118487662537
